start=new Date('2022-01-23T00:00:00.000Z').valueOf();
sats=[{"TIME_SYSTEM":"UTC","GP_ID":"194404610","ARG_OF_PERICENTER":"79.2458","SEMIMAJOR_AXIS":"6721.553","PERIAPSIS":"342.746","MEAN_ELEMENT_THEORY":"SGP4","BSTAR":"-0.00584500000000","MEAN_MOTION_DDOT":"0.0000000000000","DECAY_DATE":null,"TLE_LINE1":"1 50838U 22001AM  22022.91667824 -.00821000  00000-0 -58450-2 0  9997","EPOCH":"2022-01-22T22:00:00.999936","INCLINATION":"53.2175","OBJECT_TYPE":"PAYLOAD","MEAN_ANOMALY":"243.8970","LAUNCH_DATE":"2022-01-06","RCS_SIZE":"LARGE","NORAD_CAT_ID":"50838","REF_FRAME":"TEME","TLE_LINE2":"2 50838  53.2175 119.7438 0001000  79.2458 243.8970 15.75427149  3751","ECCENTRICITY":"0.00010000","EPHEMERIS_TYPE":"0","FILE":"3280347","SITE":"AFETR","ELEMENT_SET_NO":"999","PERIOD":"91.404","OBJECT_NAME":"STARLINK-3322","REV_AT_EPOCH":"375","CLASSIFICATION_TYPE":"U","APOAPSIS":"344.090","OBJECT_ID":"2022-001AM","CENTER_NAME":"EARTH","MEAN_MOTION_DOT":"-0.00821000","RA_OF_ASC_NODE":"119.7438","COUNTRY_CODE":"US","MEAN_MOTION":"15.75427149"},{"MEAN_ELEMENT_THEORY":"SGP4","PERIAPSIS":"342.771","TLE_LINE1":"1 50839U 22001AN  22022.91667824 -.00821288  00000-0 -58554-2 0  9991","MEAN_MOTION_DDOT":"0.0000000000000","DECAY_DATE":null,"BSTAR":"-0.00585540000000","GP_ID":"194404720","TIME_SYSTEM":"UTC","SEMIMAJOR_AXIS":"6721.645","ARG_OF_PERICENTER":"61.2027","ECCENTRICITY":"0.00011000","LAUNCH_DATE":"2022-01-06","MEAN_ANOMALY":"260.1707","OBJECT_TYPE":"PAYLOAD","INCLINATION":"53.2175","EPOCH":"2022-01-22T22:00:00.999936","TLE_LINE2":"2 50839  53.2175 119.7475 0001100  61.2027 260.1707 15.75394744  3829","REF_FRAME":"TEME","NORAD_CAT_ID":"50839","RCS_SIZE":"LARGE","PERIOD":"91.406","OBJECT_NAME":"STARLINK-3320","EPHEMERIS_TYPE":"0","ELEMENT_SET_NO":"999","SITE":"AFETR","FILE":"3280347","RA_OF_ASC_NODE":"119.7475","MEAN_MOTION_DOT":"-0.00821288","MEAN_MOTION":"15.75394744","COUNTRY_CODE":"US","REV_AT_EPOCH":"382","CENTER_NAME":"EARTH","APOAPSIS":"344.250","OBJECT_ID":"2022-001AN","CLASSIFICATION_TYPE":"U"},{"TLE_LINE1":"1 50840U 22001AP  22022.91667824 -.00821078  00000-0 -58512-2 0  9994","MEAN_MOTION_DDOT":"0.0000000000000","DECAY_DATE":null,"BSTAR":"-0.00585120000000","PERIAPSIS":"342.800","MEAN_ELEMENT_THEORY":"SGP4","SEMIMAJOR_AXIS":"6721.615","ARG_OF_PERICENTER":"81.0611","GP_ID":"194403532","TIME_SYSTEM":"UTC","ECCENTRICITY":"0.00010120","TLE_LINE2":"2 50840  53.2175 119.7462 0001012  81.0611 240.9030 15.75405354  3834","NORAD_CAT_ID":"50840","REF_FRAME":"TEME","RCS_SIZE":"LARGE","LAUNCH_DATE":"2022-01-06","MEAN_ANOMALY":"240.9030","OBJECT_TYPE":"PAYLOAD","EPOCH":"2022-01-22T22:00:00.999936","INCLINATION":"53.2175","OBJECT_NAME":"STARLINK-3295","PERIOD":"91.405","ELEMENT_SET_NO":"999","SITE":"AFETR","FILE":"3280300","EPHEMERIS_TYPE":"0","MEAN_MOTION":"15.75405354","COUNTRY_CODE":"US","RA_OF_ASC_NODE":"119.7462","MEAN_MOTION_DOT":"-0.00821078","CENTER_NAME":"EARTH","APOAPSIS":"344.160","OBJECT_ID":"2022-001AP","CLASSIFICATION_TYPE":"U","REV_AT_EPOCH":"383"},{"PERIOD":"91.407","OBJECT_NAME":"STARLINK-3300","EPHEMERIS_TYPE":"0","FILE":"3280300","ELEMENT_SET_NO":"999","SITE":"AFETR","MEAN_MOTION_DOT":"-0.00821215","RA_OF_ASC_NODE":"119.7499","MEAN_MOTION":"15.75373636","COUNTRY_CODE":"US","REV_AT_EPOCH":"382","APOAPSIS":"344.302","OBJECT_ID":"2022-001AQ","CLASSIFICATION_TYPE":"U","CENTER_NAME":"EARTH","PERIAPSIS":"342.838","MEAN_ELEMENT_THEORY":"SGP4","DECAY_DATE":null,"MEAN_MOTION_DDOT":"0.0000000000000","BSTAR":"-0.00586030000000","TLE_LINE1":"1 50841U 22001AQ  22022.91667824 -.00821215  00000-0 -58603-2 0  9999","TIME_SYSTEM":"UTC","GP_ID":"194403691","SEMIMAJOR_AXIS":"6721.705","ARG_OF_PERICENTER":"65.3090","ECCENTRICITY":"0.00010890","MEAN_ANOMALY":"254.8809","OBJECT_TYPE":"PAYLOAD","INCLINATION":"53.2175","EPOCH":"2022-01-22T22:00:00.999936","LAUNCH_DATE":"2022-01-06","RCS_SIZE":"LARGE","TLE_LINE2":"2 50841  53.2175 119.7499 0001089  65.3090 254.8809 15.75373636  3829","NORAD_CAT_ID":"50841","REF_FRAME":"TEME"},{"ECCENTRICITY":"0.00010860","LAUNCH_DATE":"2022-01-06","OBJECT_TYPE":"PAYLOAD","MEAN_ANOMALY":"261.1139","INCLINATION":"53.2175","EPOCH":"2022-01-22T22:00:00.999936","TLE_LINE2":"2 50842  53.2175 119.7450 0001086  61.4383 261.1139 15.75416740  3838","REF_FRAME":"TEME","NORAD_CAT_ID":"50842","RCS_SIZE":"LARGE","MEAN_ELEMENT_THEORY":"SGP4","PERIAPSIS":"342.718","TLE_LINE1":"1 50842U 22001AR  22022.91667824 -.00821371  00000-0 -58504-2 0  9993","DECAY_DATE":null,"MEAN_MOTION_DDOT":"0.0000000000000","BSTAR":"-0.00585040000000","GP_ID":"194403538","TIME_SYSTEM":"UTC","SEMIMAJOR_AXIS":"6721.583","ARG_OF_PERICENTER":"61.4383","RA_OF_ASC_NODE":"119.7450","MEAN_MOTION_DOT":"-0.00821371","MEAN_MOTION":"15.75416740","COUNTRY_CODE":"US","REV_AT_EPOCH":"383","CENTER_NAME":"EARTH","APOAPSIS":"344.178","OBJECT_ID":"2022-001AR","CLASSIFICATION_TYPE":"U","PERIOD":"91.404","OBJECT_NAME":"STARLINK-3302","EPHEMERIS_TYPE":"0","ELEMENT_SET_NO":"999","SITE":"AFETR","FILE":"3280300"},{"ARG_OF_PERICENTER":"54.3149","SEMIMAJOR_AXIS":"6721.767","TIME_SYSTEM":"UTC","GP_ID":"194403697","BSTAR":"-0.00586770000000","MEAN_MOTION_DDOT":"0.0000000000000","DECAY_DATE":null,"TLE_LINE1":"1 50843U 22001AS  22022.91667824 -.00821471  00000-0 -58677-2 0  9996","PERIAPSIS":"342.837","MEAN_ELEMENT_THEORY":"SGP4","RCS_SIZE":"LARGE","REF_FRAME":"TEME","NORAD_CAT_ID":"50843","TLE_LINE2":"2 50843  53.2175 119.7523 0001183  54.3149 264.6936 15.75351995  3753","EPOCH":"2022-01-22T22:00:00.999936","INCLINATION":"53.2175","MEAN_ANOMALY":"264.6936","OBJECT_TYPE":"PAYLOAD","LAUNCH_DATE":"2022-01-06","ECCENTRICITY":"0.00011830","FILE":"3280300","SITE":"AFETR","ELEMENT_SET_NO":"999","EPHEMERIS_TYPE":"0","OBJECT_NAME":"STARLINK-3325","PERIOD":"91.408","CLASSIFICATION_TYPE":"U","OBJECT_ID":"2022-001AS","APOAPSIS":"344.427","CENTER_NAME":"EARTH","REV_AT_EPOCH":"375","COUNTRY_CODE":"US","MEAN_MOTION":"15.75351995","MEAN_MOTION_DOT":"-0.00821471","RA_OF_ASC_NODE":"119.7523"},{"MEAN_MOTION_DOT":"-0.00821408","RA_OF_ASC_NODE":"119.7413","MEAN_MOTION":"15.75449343","COUNTRY_CODE":"US","REV_AT_EPOCH":"383","APOAPSIS":"344.081","OBJECT_ID":"2022-001AT","CLASSIFICATION_TYPE":"U","CENTER_NAME":"EARTH","PERIOD":"91.402","OBJECT_NAME":"STARLINK-3326","EPHEMERIS_TYPE":"0","FILE":"3280307","ELEMENT_SET_NO":"999","SITE":"AFETR","ECCENTRICITY":"0.00010800","MEAN_ANOMALY":"261.8849","OBJECT_TYPE":"PAYLOAD","EPOCH":"2022-01-22T22:00:00.999936","INCLINATION":"53.2175","LAUNCH_DATE":"2022-01-06","RCS_SIZE":"LARGE","TLE_LINE2":"2 50844  53.2175 119.7413 0001080  62.4350 261.8849 15.75449343  3838","NORAD_CAT_ID":"50844","REF_FRAME":"TEME","PERIAPSIS":"342.629","MEAN_ELEMENT_THEORY":"SGP4","MEAN_MOTION_DDOT":"0.0000000000000","DECAY_DATE":null,"BSTAR":"-0.00584230000000","TLE_LINE1":"1 50844U 22001AT  22022.91667824 -.00821408  00000-0 -58423-2 0  9996","TIME_SYSTEM":"UTC","GP_ID":"194403550","SEMIMAJOR_AXIS":"6721.490","ARG_OF_PERICENTER":"62.4350"},{"CLASSIFICATION_TYPE":"U","APOAPSIS":"344.534","OBJECT_ID":"2022-001AU","CENTER_NAME":"EARTH","REV_AT_EPOCH":"375","COUNTRY_CODE":"US","MEAN_MOTION":"15.75318992","MEAN_MOTION_DOT":"-0.00821536","RA_OF_ASC_NODE":"119.7559","FILE":"3280307","SITE":"AFETR","ELEMENT_SET_NO":"999","EPHEMERIS_TYPE":"0","OBJECT_NAME":"STARLINK-3230","PERIOD":"91.410","RCS_SIZE":"LARGE","NORAD_CAT_ID":"50845","REF_FRAME":"TEME","TLE_LINE2":"2 50845  53.2175 119.7559 0001203  53.0020 264.2343 15.75318992  3759","INCLINATION":"53.2175","EPOCH":"2022-01-22T22:00:00.999936","OBJECT_TYPE":"PAYLOAD","MEAN_ANOMALY":"264.2343","LAUNCH_DATE":"2022-01-06","ECCENTRICITY":"0.00012030","ARG_OF_PERICENTER":"53.0020","SEMIMAJOR_AXIS":"6721.861","TIME_SYSTEM":"UTC","GP_ID":"194403701","BSTAR":"-0.00587670000000","MEAN_MOTION_DDOT":"0.0000000000000","DECAY_DATE":null,"TLE_LINE1":"1 50845U 22001AU  22022.91667824 -.00821536  00000-0 -58767-2 0  9990","PERIAPSIS":"342.917","MEAN_ELEMENT_THEORY":"SGP4"},{"COUNTRY_CODE":"US","MEAN_MOTION":"15.75459449","MEAN_MOTION_DOT":"-0.00821323","RA_OF_ASC_NODE":"119.7401","CLASSIFICATION_TYPE":"U","OBJECT_ID":"2022-001AV","APOAPSIS":"344.030","CENTER_NAME":"EARTH","REV_AT_EPOCH":"380","OBJECT_NAME":"STARLINK-3308","PERIOD":"91.402","FILE":"3280307","SITE":"AFETR","ELEMENT_SET_NO":"999","EPHEMERIS_TYPE":"0","ECCENTRICITY":"0.00010480","RCS_SIZE":"LARGE","REF_FRAME":"TEME","NORAD_CAT_ID":"50846","TLE_LINE2":"2 50846  53.2175 119.7401 0001048  66.4465 258.4653 15.75459449  3802","INCLINATION":"53.2175","EPOCH":"2022-01-22T22:00:00.999936","MEAN_ANOMALY":"258.4653","OBJECT_TYPE":"PAYLOAD","LAUNCH_DATE":"2022-01-06","BSTAR":"-0.00583910000000","MEAN_MOTION_DDOT":"0.0000000000000","DECAY_DATE":null,"TLE_LINE1":"1 50846U 22001AV  22022.91667824 -.00821323  00000-0 -58391-2 0  9998","MEAN_ELEMENT_THEORY":"SGP4","PERIAPSIS":"342.622","ARG_OF_PERICENTER":"66.4465","SEMIMAJOR_AXIS":"6721.461","TIME_SYSTEM":"UTC","GP_ID":"194403705"},{"ECCENTRICITY":"0.00011350","INCLINATION":"53.2175","EPOCH":"2022-01-22T22:00:00.999936","MEAN_ANOMALY":"263.6140","OBJECT_TYPE":"PAYLOAD","LAUNCH_DATE":"2022-01-06","RCS_SIZE":"LARGE","NORAD_CAT_ID":"50847","REF_FRAME":"TEME","TLE_LINE2":"2 50847  53.2175 119.7487 0001135  57.1665 263.6140 15.75384533  3757","MEAN_ELEMENT_THEORY":"SGP4","PERIAPSIS":"342.776","BSTAR":"-0.00585850000000","MEAN_MOTION_DDOT":"0.0000000000000","DECAY_DATE":null,"TLE_LINE1":"1 50847U 22001AW  22022.91667824 -.00821357  00000-0 -58585-2 0  9991","TIME_SYSTEM":"UTC","GP_ID":"194403562","ARG_OF_PERICENTER":"57.1665","SEMIMAJOR_AXIS":"6721.674","MEAN_MOTION_DOT":"-0.00821357","RA_OF_ASC_NODE":"119.7487","COUNTRY_CODE":"US","MEAN_MOTION":"15.75384533","REV_AT_EPOCH":"375","CLASSIFICATION_TYPE":"U","APOAPSIS":"344.302","OBJECT_ID":"2022-001AW","CENTER_NAME":"EARTH","PERIOD":"91.406","OBJECT_NAME":"STARLINK-3319","EPHEMERIS_TYPE":"0","FILE":"3280301","SITE":"AFETR","ELEMENT_SET_NO":"999"}];
